[{"OBJECT_NAME":"ONEWEB-0429","OBJECT_ID":"2021-132AH","EPOCH":"2026-03-09T17:06:28.930176","MEAN_MOTION":13.18686546,"ECCENTRICITY":0.00018486,"INCLINATION":87.9248,"RA_OF_ASC_NODE":355.2198,"ARG_OF_PERICENTER":82.9914,"MEAN_ANOMALY":277.1428,"EPHEMERIS_TYPE":0,"CLASSIFICATION_TYPE":"U","NORAD_CAT_ID":50500,"ELEMENT_SET_NO":999,"REV_AT_EPOCH":20847,"BSTAR":-6.1219241e-5,"MEAN_MOTION_DOT":-1.1e-7,"MEAN_MOTION_DDOT":0},{"OBJECT_NAME":"SL-14 DEB","OBJECT_ID":"1991-056L","EPOCH":"2026-03-09T20:31:07.530528","MEAN_MOTION":13.17697969,"ECCENTRICITY":0.00265082,"INCLINATION":82.5391,"RA_OF_ASC_NODE":205.444,"ARG_OF_PERICENTER":37.6548,"MEAN_ANOMALY":322.6423,"EPHEMERIS_TYPE":0,"CLASSIFICATION_TYPE":"U","NORAD_CAT_ID":45274,"ELEMENT_SET_NO":999,"REV_AT_EPOCH":29164,"BSTAR":0.0006773627,"MEAN_MOTION_DOT":2.76e-6,"MEAN_MOTION_DDOT":0}]
